[{"OBJECT_NAME":"STARLINK-5357","OBJECT_ID":"2023-090AS","EPOCH":"2026-03-09T22:00:01.999584","MEAN_MOTION":15.10675773,"ECCENTRICITY":6.891e-5,"INCLINATION":43.0012,"RA_OF_ASC_NODE":260.3289,"ARG_OF_PERICENTER":288.3212,"MEAN_ANOMALY":241.1631,"EPHEMERIS_TYPE":0,"CLASSIFICATION_TYPE":"U","NORAD_CAT_ID":57141,"ELEMENT_SET_NO":999,"REV_AT_EPOCH":577,"BSTAR":0.0065397208,"MEAN_MOTION_DOT":0.00111663,"MEAN_MOTION_DDOT":0},{"OBJECT_NAME":"CSC-1","OBJECT_ID":"2023-155G","EPOCH":"2026-03-09T17:46:02.342496","MEAN_MOTION":15.1003596,"ECCENTRICITY":0.00075041,"INCLINATION":97.5446,"RA_OF_ASC_NODE":139.7305,"ARG_OF_PERICENTER":212.9992,"MEAN_ANOMALY":147.077,"EPHEMERIS_TYPE":0,"CLASSIFICATION_TYPE":"U","NORAD_CAT_ID":58022,"ELEMENT_SET_NO":999,"REV_AT_EPOCH":13272,"BSTAR":0.00054556609,"MEAN_MOTION_DOT":8.819e-5,"MEAN_MOTION_DDOT":0}]
